NORAD_CAT_ID,OBJECT_NAME,OBJECT_TYPE,EPOCH,MEAN_MOTION,ECCENTRICITY,INCLINATION,RA_OF_ASC_NODE,ARG_OF_PERICENTER,MEAN_ANOMALY,BSTAR,MEAN_MOTION_DOT,MEAN_MOTION_DDOT,TLE_LINE0,TLE_LINE1,TLE_LINE2,SEMIMAJOR_AXIS,PERIOD,APOGEE,PERIGEE,DECAYED
55273.0,STARLINK-5291,PAYLOAD,2023-10-13 14:09:40,14.98330721,0.0003011,69.9993,98.5185,269.4613,90.6201,2.0011e-05,1.46e-06,0.0,0 STARLINK-5291,1 55273U 23010E   23286.59005347  .00000146  00000-0  20011-4 0  9991,2 55273  69.9993  98.5185 0003011 269.4613  90.6201 14.98330721 41259,6950.191,96.107,574.148,569.963,0.0
55273.0,STARLINK-5291,PAYLOAD,2023-10-13 20:34:12,14.98331861,0.0002995,69.9994,97.8453,269.4863,90.5953,3.1587e-05,2.84e-06,0.0,0 STARLINK-5291,1 55273U 23010E   23286.85709216  .00000284  00000-0  31587-4 0  9999,2 55273  69.9994  97.8453 0002995 269.4863  90.5953 14.98331861 41290,6950.187,96.107,574.134,569.971,0.0
55273.0,STARLINK-5291,PAYLOAD,2023-10-14 14:11:41,14.98329589,0.000297,69.9994,95.9936,269.6509,90.431,-2.5072e-05,-3.92e-06,0.0,0 STARLINK-5291,1 55273U 23010E   23287.59145443 -.00000392  00000-0 -25072-4 0  9991,2 55273  69.9994  95.9936 0002970 269.6509  90.4310 14.98329589 41400,6950.194,96.107,574.123,569.995,0.0
55273.0,STARLINK-5291,PAYLOAD,2023-10-14 20:36:14,14.98318149,0.000294,69.9996,95.3203,268.6243,91.4579,0.00018057,2.062e-05,0.0,0 STARLINK-5291,1 55273U 23010E   23287.85849652  .00002062  00000-0  18057-3 0  9991,2 55273  69.9996  95.3203 0002940 268.6243  91.4579 14.98318149 41132,6950.23,96.108,574.138,570.051,0.0
55273.0,STARLINK-5291,PAYLOAD,2023-10-15 14:13:42,14.98326786,0.0002955,69.9995,93.4686,269.7785,90.3035,-3.6369e-05,-5.27e-06,0.0,0 STARLINK-5291,1 55273U 23010E   23288.59285721 -.00000527  00000-0 -36369-4 0  9997,2 55273  69.9995  93.4686 0002955 269.7785  90.3035 14.98326786 41551,6950.203,96.107,574.122,570.014,0.0
55273.0,STARLINK-5291,PAYLOAD,2023-10-15 20:38:15,14.98325781,0.0003002,69.9996,92.7952,269.3909,90.6906,-5.3114e-05,-7.27e-06,0.0,0 STARLINK-5291,1 55273U 23010E   23288.85989863 -.00000727  00000-0 -53114-4 0  9993,2 55273  69.9996  92.7952 0003002 269.3909  90.6906 14.98325781 41282,6950.206,96.107,574.157,569.984,0.0
55273.0,STARLINK-5291,PAYLOAD,2023-10-16 12:39:35,14.98330391,0.0003121,69.9993,91.1115,269.8608,90.2194,6.8687e-05,7.27e-06,0.0,0 STARLINK-5291,1 55273U 23010E   23289.52749250  .00000727  00000-0  68687-4 0  9991,2 55273  69.9993  91.1115 0003121 269.8608  90.2194 14.98330391 41385,6950.192,96.107,574.226,569.888,0.0
55273.0,STARLINK-5291,PAYLOAD,2023-10-16 14:15:43,14.98330572,0.0003122,69.9994,90.9432,269.851,90.2291,6.944e-05,7.36e-06,0.0,0 STARLINK-5291,1 55273U 23010E   23289.59425235  .00000736  00000-0  69440-4 0  9990,2 55273  69.9994  90.9432 0003122 269.8510  90.2291 14.98330572 41703,6950.191,96.107,574.226,569.886,0.0
55273.0,STARLINK-5291,PAYLOAD,2023-10-16 20:40:15,14.98333583,0.0003119,69.9995,90.2697,269.5791,90.5011,6.6798e-05,7.04e-06,0.0,0 STARLINK-5291,1 55273U 23010E   23289.86129019  .00000704  00000-0  66798-4 0  9999,2 55273  69.9995  90.2697 0003119 269.5791  90.5011 14.98333583 41746,6950.182,96.107,574.215,569.879,0.0
55273.0,STARLINK-5291,PAYLOAD,2023-10-17 12:41:36,14.98329082,0.0003046,69.9998,88.5859,270.2094,89.8716,5.3578e-05,5.46e-06,0.0,0 STARLINK-5291,1 55273U 23010E   23290.52889299  .00000546  00000-0  53578-4 0  9993,2 55273  69.9998  88.5859 0003046 270.2094  89.8716 14.98329082 41532,6950.196,96.107,574.178,569.944,0.0
55273.0,STARLINK-5291,PAYLOAD,2023-10-17 17:30:00,14.98330122,0.0002928,70.0,88.0812,268.5168,91.5656,7.0185e-05,7.45e-06,0.0,0 STARLINK-5291,1 55273U 23010E   23290.72917193  .00000745  00000-0  70185-4 0  9994,2 55273  70.0000  88.0812 0002928 268.5168  91.5656 14.98330122 41870,6950.193,96.107,574.093,570.022,0.0
55273.0,STARLINK-5291,PAYLOAD,2023-10-18 11:07:29,14.98333481,0.0002967,70.0018,86.233,270.3566,89.7253,-5.3183e-05,-7.28e-06,0.0,0 STARLINK-5291,1 55273U 23010E   23291.46353355 -.00000728  00000-0 -53183-4 0  9992,2 55273  70.0018  86.2330 0002967 270.3566  89.7253 14.98333481 41985,6950.182,96.107,574.109,569.985,0.0
55273.0,STARLINK-5291,PAYLOAD,2023-10-19 03:08:49,14.9833238,0.0002768,70.0014,84.5478,272.8929,87.1913,-1.0462e-05,-2.18e-06,0.0,0 STARLINK-5291,1 55273U 23010E   23292.13113226 -.00000218  00000-0 -10462-4 0  9995,2 55273  70.0014  84.5478 0002768 272.8929  87.1913 14.98332380 41773,6950.186,96.107,573.974,570.127,0.0
55273.0,STARLINK-5291,PAYLOAD,2023-10-19 11:09:29,14.98340185,0.0002634,69.9992,83.7054,272.2153,87.8705,-8.3434e-05,-1.089e-05,0.0,0 STARLINK-5291,1 55273U 23010E   23292.46492777 -.00001089  00000-0 -83434-4 0  9998,2 55273  69.9992  83.7054 0002634 272.2153  87.8705 14.98340185 42130,6950.161,96.106,573.857,570.196,0.0
55273.0,STARLINK-5291,PAYLOAD,2023-10-19 20:46:16,14.9837995,0.0002933,69.9996,82.6954,274.3654,85.717,-0.00048085,-5.833e-05,0.0,0 STARLINK-5291,1 55273U 23010E   23292.86546657 -.00005833  00000-0 -48085-3 0  9992,2 55273  69.9996  82.6954 0002933 274.3654  85.7170 14.98379950 41888,6950.038,96.104,573.942,569.865,0.0
55273.0,STARLINK-5291,PAYLOAD,2023-10-20 03:10:50,14.98328804,0.0001701,69.9974,82.0212,276.341,83.7555,1.3691e-05,7.1e-07,0.0,0 STARLINK-5291,1 55273U 23010E   23293.13253270  .00000071  00000-0  13691-4 0  9992,2 55273  69.9974  82.0212 0001701 276.3410  83.7555 14.98328804 41921,6950.197,96.107,573.244,570.879,0.0
55273.0,STARLINK-5291,PAYLOAD,2023-10-20 11:11:31,14.9831821,0.0002788,70.0037,81.1833,256.164,103.9209,2.3767e-05,1.91e-06,0.0,0 STARLINK-5291,1 55273U 23010E   23293.46633369  .00000191  00000-0  23767-4 0  9997,2 55273  70.0037  81.1833 0002788 256.1640 103.9209 14.98318210 42281,6950.229,96.108,574.032,570.157,0.0
55273.0,STARLINK-5291,PAYLOAD,2023-10-21 11:13:32,14.98331168,0.000273,70.0024,78.6571,263.3393,96.7455,-0.00011801,-1.501e-05,0.0,0 STARLINK-5291,1 55273U 23010E   23294.46773304 -.00001501  00000-0 -11801-3 0  9995,2 55273  70.0024  78.6571 0002730 263.3393  96.7455 14.98331168 42121,6950.189,96.107,573.952,570.157,0.0
55273.0,STARLINK-5291,PAYLOAD,2023-10-21 19:14:11,14.98339077,0.0002773,69.999,77.8131,264.5614,95.5229,3.0081e-05,2.66e-06,0.0,0 STARLINK-5291,1 55273U 23010E   23294.80152333  .00000266  00000-0  30081-4 0  9993,2 55273  69.9990  77.8131 0002773 264.5614  95.5229 14.98339077 42177,6950.165,96.106,573.957,570.103,0.0
55273.0,STARLINK-5291,PAYLOAD,2023-10-22 03:14:52,14.98328736,0.000292,69.9994,76.9731,271.4797,88.6027,4.2468e-05,4.14e-06,0.0,0 STARLINK-5291,1 55273U 23010E   23295.13532940  .00000414  00000-0  42468-4 0  9993,2 55273  69.9994  76.9731 0002920 271.4797  88.6027 14.98328736 42225,6950.197,96.107,574.091,570.032,0.0
55273.0,STARLINK-5291,PAYLOAD,2023-10-22 11:15:33,14.9831136,0.0003125,69.9994,76.1299,267.4839,92.5962,8.8823e-05,9.66e-06,0.0,0 STARLINK-5291,1 55273U 23010E   23295.46913874  .00000966  00000-0  88823-4 0  9995,2 55273  69.9994  76.1299 0003125 267.4839  92.5962 14.98311360 42278,6950.251,96.108,574.287,569.944,0.0
55273.0,STARLINK-5291,PAYLOAD,2023-10-22 14:27:49,14.98315388,0.0003177,69.9995,75.7934,267.2992,92.7804,3.3927e-05,3.12e-06,0.0,0 STARLINK-5291,1 55273U 23010E   23295.60265798  .00000312  00000-0  33927-4 0  9996,2 55273  69.9995  75.7934 0003177 267.2992  92.7804 14.98315388 42603,6950.238,96.108,574.311,569.895,0.0
55273.0,STARLINK-5291,PAYLOAD,2023-10-22 19:16:13,14.98335995,0.0002785,69.9993,75.2885,258.6513,101.4334,-0.00022281,-2.751e-05,0.0,0 STARLINK-5291,1 55273U 23010E   23295.80293270 -.00002751  00000-0 -22281-3 0  9995,2 55273  69.9993  75.2885 0002785 258.6513 101.4334 14.98335995 42329,6950.174,96.107,573.975,570.104,0.0
55273.0,STARLINK-5291,PAYLOAD,2023-10-23 19:18:13,14.98337261,0.0003219,69.9995,72.7637,268.7329,91.3461,3.6276e-05,3.4e-06,0.0,0 STARLINK-5291,1 55273U 23010E   23296.80432675  .00000340  00000-0  36276-4 0  9990,2 55273  69.9995  72.7637 0003219 268.7329  91.3461 14.98337261 42470,6950.17,96.107,574.273,569.798,0.0
55273.0,STARLINK-5291,PAYLOAD,2023-10-24 11:19:35,14.98323131,0.0003184,69.9997,71.0805,268.7816,91.2978,5.2863e-05,5.38e-06,0.0,0 STARLINK-5291,1 55273U 23010E   23297.47193469  .00000538  00000-0  52863-4 0  9998,2 55273  69.9997  71.0805 0003184 268.7816  91.2978 14.98323131 42577,6950.214,96.107,574.292,569.866,0.0
55273.0,STARLINK-5291,PAYLOAD,2023-10-25 12:57:43,14.98336189,0.0002981,70.0,68.3874,270.3362,89.7455,-1.0735e-05,-2.21e-06,0.0,0 STARLINK-5291,1 55273U 23010E   23298.54008843 -.00000221  00000-0 -10735-4 0  9991,2 55273  70.0000  68.3874 0002981 270.3362  89.7455 14.98336189 42736,6950.174,96.107,574.111,569.967,0.0
55273.0,STARLINK-5291,PAYLOAD,2023-10-26 12:59:44,14.98328634,0.0002994,70.0007,65.8632,269.1638,90.9178,2.8665e-05,2.49e-06,0.0,0 STARLINK-5291,1 55273U 23010E   23299.54148952  .00000249  00000-0  28665-4 0  9997,2 55273  70.0007  65.8632 0002994 269.1638  90.9178 14.98328634 42881,6950.197,96.107,574.143,569.981,0.0
55273.0,STARLINK-5291,PAYLOAD,2023-10-26 17:48:08,14.98331562,0.0002978,70.0004,65.3583,269.5692,90.5125,5.3242e-05,5.42e-06,0.0,0 STARLINK-5291,1 55273U 23010E   23299.74176701  .00000542  00000-0  53242-4 0  9997,2 55273  70.0004  65.3583 0002978 269.5692  90.5125 14.98331562 43225,6950.188,96.107,574.123,569.983,0.0
55273.0,STARLINK-5291,PAYLOAD,2023-10-27 01:48:49,14.98302171,0.0003091,70.0004,64.5167,265.4277,94.6529,0.00057003,6.71e-05,0.0,0 STARLINK-5291,1 55273U 23010E   23300.07556992  .00006710  00000-0  57003-3 0  9991,2 55273  70.0004  64.5167 0003091 265.4277  94.6529 14.98302171 42962,6950.279,96.109,574.292,569.996,0.0
55273.0,STARLINK-5291,PAYLOAD,2023-10-27 11:25:37,14.98330491,0.000298,70.0007,63.5067,269.7247,90.357,-1.0212e-05,-2.15e-06,0.0,0 STARLINK-5291,1 55273U 23010E   23300.47612753 -.00000215  00000-0 -10212-4 0  9991,2 55273  70.0007  63.5067 0002980 269.7247  90.3570 14.98330491 43026,6950.191,96.107,574.128,569.985,0.0
